INTELSAT 23 (IS-23)     
1 38867U 12057A   26196.10097942 -.00000294  00000+0  00000+0 0  9997
2 38867   0.0150  37.4174 0000378 151.4629  87.4414  1.00273430 50230
FM-6                    
1 39360U 13058A   26194.96565503 -.00000021  00000+0  00000+0 0  9991
2 39360   0.0142  33.4803 0001390 144.8411 344.7900  1.00270909 46349
INTELSAT 30 (IS-30)     
1 40271U 14062A   26196.11050894 -.00000160  00000+0  00000+0 0  9995
2 40271   0.0179  50.7701 0001302 335.3265 211.5942  1.00269581  7076
DIRECTV 14              
1 40333U 14078B   26196.10972894 -.00000135  00000+0  00000+0 0  9995
2 40333   0.0135  46.9408 0000389 291.2446 255.0349  1.00271746 42320
DIRECTV 15              
1 40663U 15026A   26195.68123920 -.00000111  00000+0  00000+0 0  9999
2 40663   0.0176  71.4979 0000099 242.5429 120.8693  1.00271323 40730
SKY MEXICO-1            
1 40664U 15026B   26196.11371560 -.00000243  00000+0  00000+0 0  9990
2 40664   0.0168  37.7700 0002380  98.4023 118.9217  1.00270097 40739
INTELSAT 34 (IS-34)     
1 40874U 15039A   26195.26286936 -.00000292  00000+0  00000+0 0  9998
2 40874   0.0110 352.6276 0000554   9.3806 329.2648  1.00271009 39903
INTELSAT 31 (IS-31)     
1 41581U 16035A   26194.89862426 -.00000156  00000+0  00000+0 0  9992
2 41581   0.0229 276.7908 0001186  13.0074 230.4271  1.00270917 36953
INTELSAT 36 (IS-36)     
1 41747U 16053A   26196.18220008 -.00000033  00000+0  00000+0 0  9998
2 41747   0.0111  30.6042 0002403 308.7442  87.7508  1.00270346 36232
INTELSAT 32E (IS-32E)   
1 41945U 17007B   26196.17683823  .00000000  00000+0  00000+0 0  9998
2 41945   0.0232  53.6422 0000210 271.7559 348.1175  1.00266446 34503
INTELSAT 35E (IS-35E)   
1 42818U 17041A   26196.12251454  .00000000  00000+0  00000+0 0  9992
2 42818   0.0258  58.3427 0001662  52.7108 191.5252  1.00266844 33098
INTELSAT 37E (IS-37E)   
1 42950U 17059A   26196.12580787 -.00000150  00000+0  00000+0 0  9999
2 42950   0.0178  44.9424 0002588  78.6131 196.6933  1.00269756 32349
AZERSPACE 2 (IS-38)     
1 43632U 18074A   26196.13828794  .00000127  00000+0  00000+0 0  9992
2 43632   0.0171  54.9155 0001252  66.1262 266.8328  1.00270804 28727
HORIZONS-3E             
1 43633U 18074B   26194.64002854 -.00000035  00000+0  00000+0 0  9997
2 43633   0.0498 224.9289 0000940  53.6947  52.2963  1.00270118 28608
AT&T T-16               
1 44333U 19034A   26195.82414432 -.00000123  00000+0  00000+0 0  9990
2 44333   0.0157  70.7114 0000616 248.2150 169.5701  1.00268430 25917
INTELSAT 39 (IS-39)     
1 44476U 19049B   26194.92525137  .00000000  00000+0  00000+0 0  9992
2 44476   0.0241  49.4551 0000733 282.1376 355.2527  1.00272225 25393
GALAXY 30 (G-30)        
1 46114U 20056C   26196.14109618  .00000028  00000+0  00000+0 0  9991
2 46114   0.0150  53.2973 0001988  62.4110 103.0695  1.00271782 21570
GALAXY 33 (G-33)        
1 54026U 22128A   26196.21353071  .00000069  00000+0  00000+0 0  9991
2 54026   0.0134  35.3181 0001796  85.3018 116.3145  1.00272268 14022
GALAXY 34 (G-34)        
1 54027U 22128B   26196.02371294  .00000050  00000+0  00000+0 0  9998
2 54027   0.0143  36.8335 0001241 102.3316  33.2416  1.00270740 14195
GALAXY 31 (G-31)        
1 54243U 22153A   26196.14248880  .00000004  00000+0  00000+0 0  9992
2 54243   0.0153  73.3838 0000983  46.4827 103.4025  1.00271152  7418
GALAXY 32 (G-32)        
1 54244U 22153B   26196.11128894 -.00000183  00000+0  00000+0 0  9991
2 54244   0.0090  48.1859 0001428   1.0380 192.7879  1.00269870 13428
GALAXY 35 (G-35)        
1 54741U 22170A   26196.11094227 -.00000171  00000+0  00000+0 0  9991
2 54741   0.0188  72.0991 0001917  44.3463 123.3314  1.00269918 13175
GALAXY 36 (G-36)        
1 54742U 22170B   26196.11172227 -.00000194  00000+0  00000+0 0  9994
2 54742   0.0172 212.5391 0002398 248.0402 143.5963  1.00270195 13054
GALAXY 37 (G-37)        
1 57493U 23112A   26194.96357502  .00000042  00000+0  00000+0 0  9990
2 57493   0.0218  73.5270 0001739  44.1230  34.0616  1.00271325 10810
